<?xml version="1.0" encoding="UTF-8"?>
<ndm xmlns:xsi="http://www.w3.org/2001/XMLSchema-instance" xsi:noNamespaceSchemaLocation="https://sanaregistry.org/r/ndmxml_unqualified/ndmxml-2.0.0-master-2.0.xsd">
<omm id="CCSDS_OMM_VERS" version="2.0">
<header><CREATION_DATE/><ORIGINATOR/></header><body><segment><metadata><OBJECT_NAME>COSMOS 2251 DEB</OBJECT_NAME><OBJECT_ID>1993-036LU</OBJECT_ID><CENTER_NAME>EARTH</CENTER_NAME><REF_FRAME>TEME</REF_FRAME><TIME_SYSTEM>UTC</TIME_SYSTEM><MEAN_ELEMENT_THEORY>SGP4</MEAN_ELEMENT_THEORY></metadata><data><meanElements><EPOCH>2025-11-21T20:58:00.120864</EPOCH><MEAN_MOTION>14.64386568</MEAN_MOTION><ECCENTRICITY>.0022623</ECCENTRICITY><INCLINATION>74.0039</INCLINATION><RA_OF_ASC_NODE>108.7547</RA_OF_ASC_NODE><ARG_OF_PERICENTER>259.2283</ARG_OF_PERICENTER><MEAN_ANOMALY>255.7789</MEAN_ANOMALY></meanElements><tleParameters><EPHEMERIS_TYPE>0</EPHEMERIS_TYPE><CLASSIFICATION_TYPE>U</CLASSIFICATION_TYPE><NORAD_CAT_ID>34274</NORAD_CAT_ID><ELEMENT_SET_NO>999</ELEMENT_SET_NO><REV_AT_EPOCH>88370</REV_AT_EPOCH><BSTAR>.14512E-2</BSTAR><MEAN_MOTION_DOT>.7677E-4</MEAN_MOTION_DOT><MEAN_MOTION_DDOT>0</MEAN_MOTION_DDOT></tleParameters></data></segment></body></omm>
<omm id="CCSDS_OMM_VERS" version="2.0">
<header><CREATION_DATE/><ORIGINATOR/></header><body><segment><metadata><OBJECT_NAME>COSMOS 2251 DEB</OBJECT_NAME><OBJECT_ID>1993-036LW</OBJECT_ID><CENTER_NAME>EARTH</CENTER_NAME><REF_FRAME>TEME</REF_FRAME><TIME_SYSTEM>UTC</TIME_SYSTEM><MEAN_ELEMENT_THEORY>SGP4</MEAN_ELEMENT_THEORY></metadata><data><meanElements><EPOCH>2025-11-21T22:00:56.174976</EPOCH><MEAN_MOTION>14.57007650</MEAN_MOTION><ECCENTRICITY>.0022704</ECCENTRICITY><INCLINATION>74.0218</INCLINATION><RA_OF_ASC_NODE>124.9014</RA_OF_ASC_NODE><ARG_OF_PERICENTER>272.9073</ARG_OF_PERICENTER><MEAN_ANOMALY>248.9962</MEAN_ANOMALY></meanElements><tleParameters><EPHEMERIS_TYPE>0</EPHEMERIS_TYPE><CLASSIFICATION_TYPE>U</CLASSIFICATION_TYPE><NORAD_CAT_ID>34276</NORAD_CAT_ID><ELEMENT_SET_NO>999</ELEMENT_SET_NO><REV_AT_EPOCH>88289</REV_AT_EPOCH><BSTAR>.8255E-3</BSTAR><MEAN_MOTION_DOT>.3697E-4</MEAN_MOTION_DOT><MEAN_MOTION_DDOT>0</MEAN_MOTION_DDOT></tleParameters></data></segment></body></omm>
<omm id="CCSDS_OMM_VERS" version="2.0">
<header><CREATION_DATE/><ORIGINATOR/></header><body><segment><metadata><OBJECT_NAME>COSMOS 2251 DEB</OBJECT_NAME><OBJECT_ID>1993-036MT</OBJECT_ID><CENTER_NAME>EARTH</CENTER_NAME><REF_FRAME>TEME</REF_FRAME><TIME_SYSTEM>UTC</TIME_SYSTEM><MEAN_ELEMENT_THEORY>SGP4</MEAN_ELEMENT_THEORY></metadata><data><meanElements><EPOCH>2025-11-22T00:24:18.880416</EPOCH><MEAN_MOTION>14.36602472</MEAN_MOTION><ECCENTRICITY>.0016419</ECCENTRICITY><INCLINATION>74.0479</INCLINATION><RA_OF_ASC_NODE>322.2864</RA_OF_ASC_NODE><ARG_OF_PERICENTER>36.5269</ARG_OF_PERICENTER><MEAN_ANOMALY>27.2027</MEAN_ANOMALY></meanElements><tleParameters><EPHEMERIS_TYPE>0</EPHEMERIS_TYPE><CLASSIFICATION_TYPE>U</CLASSIFICATION_TYPE><NORAD_CAT_ID>34297</NORAD_CAT_ID><ELEMENT_SET_NO>999</ELEMENT_SET_NO><REV_AT_EPOCH>87767</REV_AT_EPOCH><BSTAR>.14108E-3</BSTAR><MEAN_MOTION_DOT>.389E-5</MEAN_MOTION_DOT><MEAN_MOTION_DDOT>0</MEAN_MOTION_DDOT></tleParameters></data></segment></body></omm>
<omm id="CCSDS_OMM_VERS" version="2.0">
<header><CREATION_DATE/><ORIGINATOR/></header><body><segment><metadata><OBJECT_NAME>COSMOS 2251 DEB</OBJECT_NAME><OBJECT_ID>1993-036MV</OBJECT_ID><CENTER_NAME>EARTH</CENTER_NAME><REF_FRAME>TEME</REF_FRAME><TIME_SYSTEM>UTC</TIME_SYSTEM><MEAN_ELEMENT_THEORY>SGP4</MEAN_ELEMENT_THEORY></metadata><data><meanElements><EPOCH>2025-11-22T02:49:51.153024</EPOCH><MEAN_MOTION>15.51019623</MEAN_MOTION><ECCENTRICITY>.0026237</ECCENTRICITY><INCLINATION>73.9862</INCLINATION><RA_OF_ASC_NODE>20.5898</RA_OF_ASC_NODE><ARG_OF_PERICENTER>90.2578</ARG_OF_PERICENTER><MEAN_ANOMALY>270.1641</MEAN_ANOMALY></meanElements><tleParameters><EPHEMERIS_TYPE>0</EPHEMERIS_TYPE><CLASSIFICATION_TYPE>U</CLASSIFICATION_TYPE><NORAD_CAT_ID>34299</NORAD_CAT_ID><ELEMENT_SET_NO>999</ELEMENT_SET_NO><REV_AT_EPOCH>88689</REV_AT_EPOCH><BSTAR>.48495E-2</BSTAR><MEAN_MOTION_DOT>.296478E-2</MEAN_MOTION_DOT><MEAN_MOTION_DDOT>0</MEAN_MOTION_DDOT></tleParameters></data></segment></body></omm>
<omm id="CCSDS_OMM_VERS" version="2.0">
<header><CREATION_DATE/><ORIGINATOR/></header><body><segment><metadata><OBJECT_NAME>COSMOS 2251 DEB</OBJECT_NAME><OBJECT_ID>1993-036MX</OBJECT_ID><CENTER_NAME>EARTH</CENTER_NAME><REF_FRAME>TEME</REF_FRAME><TIME_SYSTEM>UTC</TIME_SYSTEM><MEAN_ELEMENT_THEORY>SGP4</MEAN_ELEMENT_THEORY></metadata><data><meanElements><EPOCH>2025-11-22T02:11:33.483264</EPOCH><MEAN_MOTION>14.83257316</MEAN_MOTION><ECCENTRICITY>.0013307</ECCENTRICITY><INCLINATION>74.0063</INCLINATION><RA_OF_ASC_NODE>207.6921</RA_OF_ASC_NODE><ARG_OF_PERICENTER>267.7537</ARG_OF_PERICENTER><MEAN_ANOMALY>220.2975</MEAN_ANOMALY></meanElements><tleParameters><EPHEMERIS_TYPE>0</EPHEMERIS_TYPE><CLASSIFICATION_TYPE>U</CLASSIFICATION_TYPE><NORAD_CAT_ID>34301</NORAD_CAT_ID><ELEMENT_SET_NO>999</ELEMENT_SET_NO><REV_AT_EPOCH>88094</REV_AT_EPOCH><BSTAR>.2545E-2</BSTAR><MEAN_MOTION_DOT>.20877E-3</MEAN_MOTION_DOT><MEAN_MOTION_DDOT>0</MEAN_MOTION_DDOT></tleParameters></data></segment></body></omm>
<omm id="CCSDS_OMM_VERS" version="2.0">
<header><CREATION_DATE/><ORIGINATOR/></header><body><segment><metadata><OBJECT_NAME>COSMOS 2251 DEB</OBJECT_NAME><OBJECT_ID>1993-036MY</OBJECT_ID><CENTER_NAME>EARTH</CENTER_NAME><REF_FRAME>TEME</REF_FRAME><TIME_SYSTEM>UTC</TIME_SYSTEM><MEAN_ELEMENT_THEORY>SGP4</MEAN_ELEMENT_THEORY></metadata><data><meanElements><EPOCH>2025-11-21T23:54:00.924192</EPOCH><MEAN_MOTION>14.39216592</MEAN_MOTION><ECCENTRICITY>.0077625</ECCENTRICITY><INCLINATION>74.1774</INCLINATION><RA_OF_ASC_NODE>161.5348</RA_OF_ASC_NODE><ARG_OF_PERICENTER>22.8144</ARG_OF_PERICENTER><MEAN_ANOMALY>129.2062</MEAN_ANOMALY></meanElements><tleParameters><EPHEMERIS_TYPE>0</EPHEMERIS_TYPE><CLASSIFICATION_TYPE>U</CLASSIFICATION_TYPE><NORAD_CAT_ID>34302</NORAD_CAT_ID><ELEMENT_SET_NO>999</ELEMENT_SET_NO><REV_AT_EPOCH>87422</REV_AT_EPOCH><BSTAR>.67868E-3</BSTAR><MEAN_MOTION_DOT>.2154E-4</MEAN_MOTION_DOT><MEAN_MOTION_DDOT>0</MEAN_MOTION_DDOT></tleParameters></data></segment></body></omm>
<omm id="CCSDS_OMM_VERS" version="2.0">
<header><CREATION_DATE/><ORIGINATOR/></header><body><segment><metadata><OBJECT_NAME>COSMOS 2251 DEB</OBJECT_NAME><OBJECT_ID>1993-036MZ</OBJECT_ID><CENTER_NAME>EARTH</CENTER_NAME><REF_FRAME>TEME</REF_FRAME><TIME_SYSTEM>UTC</TIME_SYSTEM><MEAN_ELEMENT_THEORY>SGP4</MEAN_ELEMENT_THEORY></metadata><data><meanElements><EPOCH>2025-11-22T00:30:38.592000</EPOCH><MEAN_MOTION>14.54132026</MEAN_MOTION><ECCENTRICITY>.0135064</ECCENTRICITY><INCLINATION>74.0052</INCLINATION><RA_OF_ASC_NODE>327.3033</RA_OF_ASC_NODE><ARG_OF_PERICENTER>111.1373</ARG_OF_PERICENTER><MEAN_ANOMALY>317.0474</MEAN_ANOMALY></meanElements><tleParameters><EPHEMERIS_TYPE>0</EPHEMERIS_TYPE><CLASSIFICATION_TYPE>U</CLASSIFICATION_TYPE><NORAD_CAT_ID>34303</NORAD_CAT_ID><ELEMENT_SET_NO>999</ELEMENT_SET_NO><REV_AT_EPOCH>87661</REV_AT_EPOCH><BSTAR>.71521E-3</BSTAR><MEAN_MOTION_DOT>.3385E-4</MEAN_MOTION_DOT><MEAN_MOTION_DDOT>0</MEAN_MOTION_DDOT></tleParameters></data></segment></body></omm>
<omm id="CCSDS_OMM_VERS" version="2.0">
<header><CREATION_DATE/><ORIGINATOR/></header><body><segment><metadata><OBJECT_NAME>COSMOS 2251 DEB</OBJECT_NAME><OBJECT_ID>1993-036NA</OBJECT_ID><CENTER_NAME>EARTH</CENTER_NAME><REF_FRAME>TEME</REF_FRAME><TIME_SYSTEM>UTC</TIME_SYSTEM><MEAN_ELEMENT_THEORY>SGP4</MEAN_ELEMENT_THEORY></metadata><data><meanElements><EPOCH>2025-11-21T23:40:54.310944</EPOCH><MEAN_MOTION>14.37618105</MEAN_MOTION><ECCENTRICITY>.0128748</ECCENTRICITY><INCLINATION>74.0119</INCLINATION><RA_OF_ASC_NODE>160.8664</RA_OF_ASC_NODE><ARG_OF_PERICENTER>302.9957</ARG_OF_PERICENTER><MEAN_ANOMALY>210.6222</MEAN_ANOMALY></meanElements><tleParameters><EPHEMERIS_TYPE>0</EPHEMERIS_TYPE><CLASSIFICATION_TYPE>U</CLASSIFICATION_TYPE><NORAD_CAT_ID>34304</NORAD_CAT_ID><ELEMENT_SET_NO>999</ELEMENT_SET_NO><REV_AT_EPOCH>86998</REV_AT_EPOCH><BSTAR>.10519E-2</BSTAR><MEAN_MOTION_DOT>.3447E-4</MEAN_MOTION_DOT><MEAN_MOTION_DDOT>0</MEAN_MOTION_DDOT></tleParameters></data></segment></body></omm>

</ndm>
